{
  "type": "FeatureCollection",
  "features": [
    {
      "type": "Feature",
      "properties": {
        "norad_id": 66649,
        "name": "COSMOS 2599 (RODNIK-S 24)",
        "group": "last-30-days",
        "lat": -81.37782338760435,
        "lon": -130.74606198835957,
        "alt_km": 1501.71117575866,
        "timestamp": "2025-12-07T18:50:15.515538+00:00",
        "meta_object_name": "COSMOS 2599 (RODNIK-S 24)",
        "meta_object_id": "2025-273C",
        "meta_epoch": "2025-12-07T05:45:40.762368",
        "meta_mean_motion": 12.41671784,
        "meta_eccentricity": 0.00082439,
        "meta_inclination": 82.5016,
        "meta_ra_of_asc_node": 289.8782,
        "meta_arg_of_pericenter": 312.5495,
        "meta_mean_anomaly": 47.4887,
        "meta_ephemeris_type": 0,
        "meta_classification_type": "U",
        "meta_norad_cat_id": 66649,
        "meta_element_set_no": 999,
        "meta_rev_at_epoch": 145,
        "meta_bstar": -4.2405335e-05,
        "meta_mean_motion_dot": 4e-08,
        "meta_mean_motion_ddot": 0,
        "tle_line1": "1 66649U 25273C   25341.24005512  .00000004  00000+0 -42405-4 0  9997",
        "tle_line2": "2 66649  82.5016 289.8782 0008243 312.5495  47.4887 12.41671784  1454"
      },
      "geometry": {
        "type": "Point",
        "coordinates": [
          -130.74606198835957,
          -81.37782338760435
        ]
      }
    },
    {
      "type": "Feature",
      "properties": {
        "norad_id": 66650,
        "name": "BEE-1000",
        "group": "last-30-days",
        "lat": -18.653505194651633,
        "lon": -88.30524705856908,
        "alt_km": 595.4740374105877,
        "timestamp": "2025-12-07T18:50:15.515549+00:00",
        "meta_object_name": "BEE-1000",
        "meta_object_id": "2025-274A",
        "meta_epoch": "2025-12-07T06:02:31.530048",
        "meta_mean_motion": 14.91632462,
        "meta_eccentricity": 0.00104371,
        "meta_inclination": 97.7387,
        "meta_ra_of_asc_node": 268.5404,
        "meta_arg_of_pericenter": 272.8798,
        "meta_mean_anomaly": 87.1227,
        "meta_ephemeris_type": 0,
        "meta_classification_type": "U",
        "meta_norad_cat_id": 66650,
        "meta_element_set_no": 999,
        "meta_rev_at_epoch": 158,
        "meta_bstar": 0.00027018899,
        "meta_mean_motion_dot": 2.66e-05,
        "meta_mean_motion_ddot": 0,
        "tle_line1": "1 66650U 25274A   25341.25175382  .00002660  00000+0  27019-3 0  9996",
        "tle_line2": "2 66650  97.7387 268.5404 0010437 272.8798  87.1227 14.91632462  1582"
      },
      "geometry": {
        "type": "Point",
        "coordinates": [
          -88.30524705856908,
          -18.653505194651633
        ]
      }
    },
    {
      "type": "Feature",
      "properties": {
        "norad_id": 66651,
        "name": "2025-274B",
        "group": "last-30-days",
        "lat": -15.845067916990871,
        "lon": -88.72402436295565,
        "alt_km": 595.2474719564843,
        "timestamp": "2025-12-07T18:50:15.515559+00:00",
        "meta_object_name": "2025-274B",
        "meta_object_id": "2025-274B",
        "meta_epoch": "2025-12-07T06:01:49.063584",
        "meta_mean_motion": 14.91734133,
        "meta_eccentricity": 0.00107542,
        "meta_inclination": 97.7386,
        "meta_ra_of_asc_node": 268.5403,
        "meta_arg_of_pericenter": 272.1904,
        "meta_mean_anomaly": 87.8084,
        "meta_ephemeris_type": 0,
        "meta_classification_type": "U",
        "meta_norad_cat_id": 66651,
        "meta_element_set_no": 999,
        "meta_rev_at_epoch": 158,
        "meta_bstar": 0.0005872624,
        "meta_mean_motion_dot": 5.866e-05,
        "meta_mean_motion_ddot": 0,
        "tle_line1": "1 66651U 25274B   25341.25126231  .00005866  00000+0  58726-3 0  9996",
        "tle_line2": "2 66651  97.7386 268.5403 0010754 272.1904  87.8084 14.91734133  1581"
      },
      "geometry": {
        "type": "Point",
        "coordinates": [
          -88.72402436295565,
          -15.845067916990871
        ]
      }
    },
    {
      "type": "Feature",
      "properties": {
        "norad_id": 66652,
        "name": "2025-274C",
        "group": "last-30-days",
        "lat": -10.188151261062261,
        "lon": -89.53240095242975,
        "alt_km": 594.1984097666591,
        "timestamp": "2025-12-07T18:50:15.515569+00:00",
        "meta_object_name": "2025-274C",
        "meta_object_id": "2025-274C",
        "meta_epoch": "2025-12-07T02:47:10.926816",
        "meta_mean_motion": 14.91858714,
        "meta_eccentricity": 0.00104303,
        "meta_inclination": 97.7392,
        "meta_ra_of_asc_node": 268.4105,
        "meta_arg_of_pericenter": 279.5537,
        "meta_mean_anomaly": 80.4503,
        "meta_ephemeris_type": 0,
        "meta_classification_type": "U",
        "meta_norad_cat_id": 66652,
        "meta_element_set_no": 999,
        "meta_rev_at_epoch": 156,
        "meta_bstar": 0.00037894928,
        "meta_mean_motion_dot": 3.776e-05,
        "meta_mean_motion_ddot": 0,
        "tle_line1": "1 66652U 25274C   25341.11609869  .00003776  00000+0  37895-3 0  9997",
        "tle_line2": "2 66652  97.7392 268.4105 0010430 279.5537  80.4503 14.91858714  1566"
      },
      "geometry": {
        "type": "Point",
        "coordinates": [
          -89.53240095242975,
          -10.188151261062261
        ]
      }
    },
    {
      "type": "Feature",
      "properties": {
        "norad_id": 66653,
        "name": "2025-274D",
        "group": "last-30-days",
        "lat": -9.89316646900842,
        "lon": -89.57370775739595,
        "alt_km": 594.5844078498794,
        "timestamp": "2025-12-07T18:50:15.515579+00:00",
        "meta_object_name": "2025-274D",
        "meta_object_id": "2025-274D",
        "meta_epoch": "2025-12-07T06:00:16.278624",
        "meta_mean_motion": 14.91863249,
        "meta_eccentricity": 0.00112528,
        "meta_inclination": 97.7389,
        "meta_ra_of_asc_node": 268.5423,
        "meta_arg_of_pericenter": 274.8482,
        "meta_mean_anomaly": 85.1452,
        "meta_ephemeris_type": 0,
        "meta_classification_type": "U",
        "meta_norad_cat_id": 66653,
        "meta_element_set_no": 999,
        "meta_rev_at_epoch": 158,
        "meta_bstar": 0.00034972853,
        "meta_mean_motion_dot": 3.481e-05,
        "meta_mean_motion_ddot": 0,
        "tle_line1": "1 66653U 25274D   25341.25018841  .00003481  00000+0  34973-3 0  9994",
        "tle_line2": "2 66653  97.7389 268.5423 0011252 274.8482  85.1452 14.91863249  1583"
      },
      "geometry": {
        "type": "Point",
        "coordinates": [
          -89.57370775739595,
          -9.89316646900842
        ]
      }
    },
    {
      "type": "Feature",
      "properties": {
        "norad_id": 66654,
        "name": "JACK E",
        "group": "last-30-days",
        "lat": -3.3766354202762767,
        "lon": -90.46958472747583,
        "alt_km": 593.9211821367417,
        "timestamp": "2025-12-07T18:50:15.515588+00:00",
        "meta_object_name": "JACK E",
        "meta_object_id": "2025-274E",
        "meta_epoch": "2025-12-07T05:58:35.799744",
        "meta_mean_motion": 14.92035822,
        "meta_eccentricity": 0.00118163,
        "meta_inclination": 97.7392,
        "meta_ra_of_asc_node": 268.5444,
        "meta_arg_of_pericenter": 276.2797,
        "meta_mean_anomaly": 83.7076,
        "meta_ephemeris_type": 0,
        "meta_classification_type": "U",
        "meta_norad_cat_id": 66654,
        "meta_element_set_no": 999,
        "meta_rev_at_epoch": 158,
        "meta_bstar": 0.00041807199,
        "meta_mean_motion_dot": 4.191e-05,
        "meta_mean_motion_ddot": 0,
        "tle_line1": "1 66654U 25274E   25341.24902546  .00004191  00000+0  41807-3 0  9991",
        "tle_line2": "2 66654  97.7392 268.5444 0011816 276.2797  83.7076 14.92035822  1587"
      },
      "geometry": {
        "type": "Point",
        "coordinates": [
          -90.46958472747583,
          -3.3766354202762767
        ]
      }
    },
    {
      "type": "Feature",
      "properties": {
        "norad_id": 66655,
        "name": "2025-274F",
        "group": "last-30-days",
        "lat": 4.526464610270686,
        "lon": -91.54353904207909,
        "alt_km": 589.6288796471117,
        "timestamp": "2025-12-07T18:50:15.515600+00:00",
        "meta_object_name": "2025-274F",
        "meta_object_id": "2025-274F",
        "meta_epoch": "2025-12-07T01:07:02.048736",
        "meta_mean_motion": 14.92434486,
        "meta_eccentricity": 0.00066721,
        "meta_inclination": 97.7352,
        "meta_ra_of_asc_node": 268.3478,
        "meta_arg_of_pericenter": 318.5674,
        "meta_mean_anomaly": 41.5038,
        "meta_ephemeris_type": 0,
        "meta_classification_type": "U",
        "meta_norad_cat_id": 66655,
        "meta_element_set_no": 999,
        "meta_rev_at_epoch": 155,
        "meta_bstar": 0.0015601248,
        "meta_mean_motion_dot": 0.00015966,
        "meta_mean_motion_ddot": 0,
        "tle_line1": "1 66655U 25274F   25341.04655149  .00015966  00000+0  15601-2 0  9998",
        "tle_line2": "2 66655  97.7352 268.3478 0006672 318.5674  41.5038 14.92434486  1553"
      },
      "geometry": {
        "type": "Point",
        "coordinates": [
          -91.54353904207909,
          4.526464610270686
        ]
      }
    }
  ]
}